start=new Date('2023-04-13T00:00:00.000Z').valueOf();
sats=[{"TLE_LINE2":"2 54773  53.2176 130.9389 0001161  81.1385 278.9739 15.08853879 17456","BSTAR":"0.00012296000000","ELEMENT_SET_NO":"999","OBJECT_TYPE":"PAYLOAD","MEAN_ELEMENT_THEORY":"SGP4","INCLINATION":"53.2176","MEAN_ANOMALY":"278.9739","LAUNCH_DATE":"2022-12-17","ARG_OF_PERICENTER":"81.1385","TLE_LINE1":"1 54773U 22175R   23102.81408743  .00001670  00000-0  12296-3 0  9993","APOAPSIS":"540.506","MEAN_MOTION_DOT":"0.00001670","TIME_SYSTEM":"UTC","EPOCH":"2023-04-12T19:32:17.153952","REV_AT_EPOCH":"1745","DECAY_DATE":null,"ECCENTRICITY":"0.00011610","MEAN_MOTION_DDOT":"0.0000000000000","OBJECT_NAME":"STARLINK-5453","OBJECT_ID":"2022-175R","NORAD_CAT_ID":"54773","MEAN_MOTION":"15.08853879","RCS_SIZE":"LARGE","CLASSIFICATION_TYPE":"U","EPHEMERIS_TYPE":"0","COUNTRY_CODE":"US","FILE":"3886503","PERIAPSIS":"538.900","CENTER_NAME":"EARTH","REF_FRAME":"TEME","PERIOD":"95.437","RA_OF_ASC_NODE":"130.9389","SITE":"AFETR","SEMIMAJOR_AXIS":"6917.838","GP_ID":"229989345"},{"BSTAR":"-0.00003921700000","TLE_LINE2":"2 54774  53.2180 118.1770 0001442  82.0861 278.0295 15.08835077 19758","ELEMENT_SET_NO":"999","MEAN_ELEMENT_THEORY":"SGP4","OBJECT_TYPE":"PAYLOAD","INCLINATION":"53.2180","MEAN_ANOMALY":"278.0295","ARG_OF_PERICENTER":"82.0861","LAUNCH_DATE":"2022-12-17","TLE_LINE1":"1 54774U 22175S   23102.36935267 -.00000912  00000-0 -39217-4 0  9993","APOAPSIS":"540.758","MEAN_MOTION_DOT":"-0.00000912","TIME_SYSTEM":"UTC","REV_AT_EPOCH":"1975","EPOCH":"2023-04-12T08:51:52.070688","DECAY_DATE":null,"ECCENTRICITY":"0.00014420","MEAN_MOTION_DDOT":"0.0000000000000","OBJECT_NAME":"STARLINK-5454","OBJECT_ID":"2022-175S","NORAD_CAT_ID":"54774","MEAN_MOTION":"15.08835077","CLASSIFICATION_TYPE":"U","RCS_SIZE":"LARGE","EPHEMERIS_TYPE":"0","COUNTRY_CODE":"US","FILE":"3886349","PERIAPSIS":"538.763","RA_OF_ASC_NODE":"118.1770","PERIOD":"95.438","REF_FRAME":"TEME","CENTER_NAME":"EARTH","SEMIMAJOR_AXIS":"6917.895","SITE":"AFETR","GP_ID":"229984929"},{"BSTAR":"-0.00008857700000","TLE_LINE2":"2 54775  53.2161 132.9957 0001506  80.4572 279.6590 15.08832935 19543","ELEMENT_SET_NO":"999","MEAN_ELEMENT_THEORY":"SGP4","OBJECT_TYPE":"PAYLOAD","INCLINATION":"53.2161","MEAN_ANOMALY":"279.6590","ARG_OF_PERICENTER":"80.4572","LAUNCH_DATE":"2022-12-17","TLE_LINE1":"1 54775U 22175T   23102.34674025 -.00001697  00000-0 -88577-4 0  9998","APOAPSIS":"540.809","MEAN_MOTION_DOT":"-0.00001697","TIME_SYSTEM":"UTC","REV_AT_EPOCH":"1954","EPOCH":"2023-04-12T08:19:18.357600","DECAY_DATE":null,"ECCENTRICITY":"0.00015060","MEAN_MOTION_DDOT":"0.0000000000000","OBJECT_NAME":"STARLINK-5465","OBJECT_ID":"2022-175T","NORAD_CAT_ID":"54775","MEAN_MOTION":"15.08832935","RCS_SIZE":"LARGE","CLASSIFICATION_TYPE":"U","EPHEMERIS_TYPE":"0","COUNTRY_CODE":"US","FILE":"3886349","PERIAPSIS":"538.725","RA_OF_ASC_NODE":"132.9957","PERIOD":"95.438","REF_FRAME":"TEME","CENTER_NAME":"EARTH","SEMIMAJOR_AXIS":"6917.902","SITE":"AFETR","GP_ID":"229985167"},{"INCLINATION":"53.2162","MEAN_ANOMALY":"269.5552","BSTAR":"-0.00002681100000","TLE_LINE2":"2 54776  53.2162 132.5621 0001404  90.5601 269.5552 15.08833851 19556","ELEMENT_SET_NO":"999","MEAN_ELEMENT_THEORY":"SGP4","OBJECT_TYPE":"PAYLOAD","REV_AT_EPOCH":"1955","EPOCH":"2023-04-12T09:22:51.196512","DECAY_DATE":null,"ECCENTRICITY":"0.00014040","MEAN_MOTION_DDOT":"0.0000000000000","ARG_OF_PERICENTER":"90.5601","LAUNCH_DATE":"2022-12-17","TLE_LINE1":"1 54776U 22175U   23102.39087033 -.00000715  00000-0 -26811-4 0  9994","APOAPSIS":"540.735","MEAN_MOTION_DOT":"-0.00000715","TIME_SYSTEM":"UTC","MEAN_MOTION":"15.08833851","RCS_SIZE":"LARGE","CLASSIFICATION_TYPE":"U","OBJECT_NAME":"STARLINK-5470","OBJECT_ID":"2022-175U","NORAD_CAT_ID":"54776","PERIOD":"95.438","RA_OF_ASC_NODE":"132.5621","REF_FRAME":"TEME","CENTER_NAME":"EARTH","SEMIMAJOR_AXIS":"6917.899","SITE":"AFETR","GP_ID":"229983931","EPHEMERIS_TYPE":"0","COUNTRY_CODE":"US","PERIAPSIS":"538.793","FILE":"3886349"},{"DECAY_DATE":null,"REV_AT_EPOCH":"1954","EPOCH":"2023-04-12T08:13:59.583936","ECCENTRICITY":"0.00016450","MEAN_MOTION_DDOT":"0.0000000000000","TLE_LINE1":"1 54777U 22175V   23102.34305074 -.00000660  00000-0 -23392-4 0  9998","ARG_OF_PERICENTER":"114.6903","LAUNCH_DATE":"2022-12-17","TIME_SYSTEM":"UTC","APOAPSIS":"540.888","MEAN_MOTION_DOT":"-0.00000660","INCLINATION":"53.2167","MEAN_ANOMALY":"245.4261","BSTAR":"-0.00002339200000","TLE_LINE2":"2 54777  53.2167 132.9701 0001645 114.6903 245.4261 15.08838495 19543","MEAN_ELEMENT_THEORY":"SGP4","OBJECT_TYPE":"PAYLOAD","ELEMENT_SET_NO":"999","SEMIMAJOR_AXIS":"6917.885","SITE":"AFETR","PERIOD":"95.438","RA_OF_ASC_NODE":"132.9701","REF_FRAME":"TEME","CENTER_NAME":"EARTH","GP_ID":"229984181","COUNTRY_CODE":"US","EPHEMERIS_TYPE":"0","FILE":"3886349","PERIAPSIS":"538.612","MEAN_MOTION":"15.08838495","RCS_SIZE":"LARGE","CLASSIFICATION_TYPE":"U","OBJECT_ID":"2022-175V","OBJECT_NAME":"STARLINK-5468","NORAD_CAT_ID":"54777"},{"GP_ID":"229986128","SEMIMAJOR_AXIS":"6917.885","SITE":"AFETR","PERIOD":"95.438","RA_OF_ASC_NODE":"116.3589","REF_FRAME":"TEME","CENTER_NAME":"EARTH","PERIAPSIS":"538.906","FILE":"3886367","COUNTRY_CODE":"US","EPHEMERIS_TYPE":"0","CLASSIFICATION_TYPE":"U","RCS_SIZE":"LARGE","MEAN_MOTION":"15.08838372","NORAD_CAT_ID":"54778","OBJECT_ID":"2022-175W","OBJECT_NAME":"STARLINK-5450","ECCENTRICITY":"0.00012210","MEAN_MOTION_DDOT":"0.0000000000000","DECAY_DATE":null,"REV_AT_EPOCH":"1765","EPOCH":"2023-04-12T18:17:29.451552","TIME_SYSTEM":"UTC","APOAPSIS":"540.595","MEAN_MOTION_DOT":"-0.00000376","TLE_LINE1":"1 54778U 22175W   23102.76214643 -.00000376  00000-0 -55409-5 0  9995","ARG_OF_PERICENTER":"86.6103","LAUNCH_DATE":"2022-12-17","MEAN_ANOMALY":"273.5029","INCLINATION":"53.2165","MEAN_ELEMENT_THEORY":"SGP4","OBJECT_TYPE":"PAYLOAD","ELEMENT_SET_NO":"999","BSTAR":"-0.00000554090000","TLE_LINE2":"2 54778  53.2165 116.3589 0001221  86.6103 273.5029 15.08838372 17650"},{"TIME_SYSTEM":"UTC","APOAPSIS":"540.722","MEAN_MOTION_DOT":"0.00000927","TLE_LINE1":"1 54779U 22175X   23102.36839112  .00000927  00000-0  76350-4 0  9993","LAUNCH_DATE":"2022-12-17","ARG_OF_PERICENTER":"90.8479","ECCENTRICITY":"0.00014060","MEAN_MOTION_DDOT":"0.0000000000000","DECAY_DATE":null,"EPOCH":"2023-04-12T08:50:28.992768","REV_AT_EPOCH":"1975","OBJECT_TYPE":"PAYLOAD","MEAN_ELEMENT_THEORY":"SGP4","ELEMENT_SET_NO":"999","TLE_LINE2":"2 54779  53.2171 118.1666 0001406  90.8479 269.2674 15.08838667 19750","BSTAR":"0.00007635000000","MEAN_ANOMALY":"269.2674","INCLINATION":"53.2171","PERIAPSIS":"538.777","FILE":"3886349","COUNTRY_CODE":"US","EPHEMERIS_TYPE":"0","GP_ID":"229985668","SITE":"AFETR","SEMIMAJOR_AXIS":"6917.884","CENTER_NAME":"EARTH","REF_FRAME":"TEME","PERIOD":"95.438","RA_OF_ASC_NODE":"118.1666","NORAD_CAT_ID":"54779","OBJECT_ID":"2022-175X","OBJECT_NAME":"STARLINK-5447","CLASSIFICATION_TYPE":"U","RCS_SIZE":"LARGE","MEAN_MOTION":"15.08838667"},{"PERIAPSIS":"543.849","FILE":"3886349","COUNTRY_CODE":"US","EPHEMERIS_TYPE":"0","GP_ID":"229984432","SITE":"AFETR","SEMIMAJOR_AXIS":"6922.896","CENTER_NAME":"EARTH","PERIOD":"95.541","REF_FRAME":"TEME","RA_OF_ASC_NODE":"117.7426","NORAD_CAT_ID":"54780","OBJECT_ID":"2022-175Y","OBJECT_NAME":"STARLINK-5449","CLASSIFICATION_TYPE":"U","RCS_SIZE":"LARGE","MEAN_MOTION":"15.07200469","TIME_SYSTEM":"UTC","MEAN_MOTION_DOT":"-0.00000465","APOAPSIS":"545.674","TLE_LINE1":"1 54780U 22175Y   23102.41508999 -.00000465  00000-0 -11923-4 0  9991","LAUNCH_DATE":"2022-12-17","ARG_OF_PERICENTER":"93.2357","MEAN_MOTION_DDOT":"0.0000000000000","ECCENTRICITY":"0.00013180","DECAY_DATE":null,"EPOCH":"2023-04-12T09:57:43.775136","REV_AT_EPOCH":"1976","OBJECT_TYPE":"PAYLOAD","MEAN_ELEMENT_THEORY":"SGP4","ELEMENT_SET_NO":"999","TLE_LINE2":"2 54780  53.2168 117.7426 0001318  93.2357 266.8785 15.07200469 19760","BSTAR":"-0.00001192300000","MEAN_ANOMALY":"266.8785","INCLINATION":"53.2168"},{"MEAN_MOTION":"15.07203093","RCS_SIZE":"LARGE","CLASSIFICATION_TYPE":"U","OBJECT_ID":"2022-175Z","OBJECT_NAME":"STARLINK-5443","NORAD_CAT_ID":"54781","SEMIMAJOR_AXIS":"6922.888","SITE":"AFETR","PERIOD":"95.541","REF_FRAME":"TEME","RA_OF_ASC_NODE":"116.9873","CENTER_NAME":"EARTH","GP_ID":"229986142","COUNTRY_CODE":"US","EPHEMERIS_TYPE":"0","FILE":"3886369","PERIAPSIS":"543.895","INCLINATION":"53.2169","MEAN_ANOMALY":"276.8587","BSTAR":"0.00005358600000","TLE_LINE2":"2 54781  53.2169 116.9873 0001240  83.2546 276.8587 15.07203093 17622","MEAN_ELEMENT_THEORY":"SGP4","OBJECT_TYPE":"PAYLOAD","ELEMENT_SET_NO":"999","DECAY_DATE":null,"REV_AT_EPOCH":"1762","EPOCH":"2023-04-12T12:30:12.672000","MEAN_MOTION_DDOT":"0.0000000000000","ECCENTRICITY":"0.00012400","TLE_LINE1":"1 54781U 22175Z   23102.52098000  .00000532  00000-0  53586-4 0  9995","ARG_OF_PERICENTER":"83.2546","LAUNCH_DATE":"2022-12-17","TIME_SYSTEM":"UTC","APOAPSIS":"545.612","MEAN_MOTION_DOT":"0.00000532"},{"INCLINATION":"53.2125","MEAN_ANOMALY":"325.0086","TLE_LINE2":"2 54782  53.2125  93.6987 0001275  79.3681 325.0086 15.56007585  1307","BSTAR":"-0.01013800000000","ELEMENT_SET_NO":"999","OBJECT_TYPE":"PAYLOAD","MEAN_ELEMENT_THEORY":"SGP4","EPOCH":"2023-04-12T14:00:01.000224","REV_AT_EPOCH":"130","DECAY_DATE":null,"ECCENTRICITY":"0.00012750","MEAN_MOTION_DDOT":"0.0000000000000","LAUNCH_DATE":"2022-12-17","ARG_OF_PERICENTER":"79.3681","TLE_LINE1":"1 54782U 22175AA  23102.58334491 -.00661766  00000-0 -10138-1 0  9996","APOAPSIS":"400.091","MEAN_MOTION_DOT":"-0.00661766","TIME_SYSTEM":"UTC","MEAN_MOTION":"15.56007585","CLASSIFICATION_TYPE":"U","RCS_SIZE":"LARGE","OBJECT_NAME":"STARLINK-5437","OBJECT_ID":"2022-175AA","NORAD_CAT_ID":"54782","CENTER_NAME":"EARTH","PERIOD":"92.545","REF_FRAME":"TEME","RA_OF_ASC_NODE":"93.6987","SITE":"AFETR","SEMIMAJOR_AXIS":"6777.362","GP_ID":"229984930","EPHEMERIS_TYPE":"0","COUNTRY_CODE":"US","FILE":"3886349","PERIAPSIS":"398.363"}];
